{
  "type": "FeatureCollection",
  "features": [
    {
      "type": "Feature",
      "properties": {
        "norad_id": 38060,
        "name": "COSMOS 2251 DEB",
        "group": "cosmos-2251-debris",
        "lat": 35.381140797346184,
        "lon": 90.70009889859234,
        "alt_km": 695.8916458692775,
        "timestamp": "2025-12-19T10:50:01.599668+00:00",
        "meta_object_name": "COSMOS 2251 DEB",
        "meta_object_id": "1993-036BRS",
        "meta_epoch": "2025-12-18T12:51:56.479104",
        "meta_mean_motion": 14.63889679,
        "meta_eccentricity": 0.00583817,
        "meta_inclination": 74.0432,
        "meta_ra_of_asc_node": 284.1799,
        "meta_arg_of_pericenter": 28.687,
        "meta_mean_anomaly": 331.7487,
        "meta_ephemeris_type": 0,
        "meta_classification_type": "U",
        "meta_norad_cat_id": 38060,
        "meta_element_set_no": 999,
        "meta_rev_at_epoch": 72049,
        "meta_bstar": 0.00043764509,
        "meta_mean_motion_dot": 2.314e-05,
        "meta_mean_motion_ddot": 0,
        "tle_line1": "1 38060U 93036BRS 25352.53607036  .00002314  00000+0  43765-3 0  9992",
        "tle_line2": "2 38060  74.0432 284.1799 0058381  28.6870 331.7487 14.63889679720491"
      },
      "geometry": {
        "type": "Point",
        "coordinates": [
          90.70009889859234,
          35.381140797346184
        ]
      }
    },
    {
      "type": "Feature",
      "properties": {
        "norad_id": 38062,
        "name": "COSMOS 2251 DEB",
        "group": "cosmos-2251-debris",
        "lat": 35.48381258111963,
        "lon": 85.11587975163445,
        "alt_km": 580.271274406241,
        "timestamp": "2025-12-19T10:50:01.599679+00:00",
        "meta_object_name": "COSMOS 2251 DEB",
        "meta_object_id": "1993-036BRU",
        "meta_epoch": "2025-12-17T02:04:28.793568",
        "meta_mean_motion": 14.95076851,
        "meta_eccentricity": 0.00127653,
        "meta_inclination": 74.0085,
        "meta_ra_of_asc_node": 281.6883,
        "meta_arg_of_pericenter": 50.5623,
        "meta_mean_anomaly": 328.1429,
        "meta_ephemeris_type": 0,
        "meta_classification_type": "U",
        "meta_norad_cat_id": 38062,
        "meta_element_set_no": 999,
        "meta_rev_at_epoch": 63095,
        "meta_bstar": 0.0018936514,
        "meta_mean_motion_dot": 0.00020809,
        "meta_mean_motion_ddot": 0,
        "tle_line1": "1 38062U 93036BRU 25351.08644437  .00020809  00000+0  18937-2 0  9990",
        "tle_line2": "2 38062  74.0085 281.6883 0012765  50.5623 328.1429 14.95076851630951"
      },
      "geometry": {
        "type": "Point",
        "coordinates": [
          85.11587975163445,
          35.48381258111963
        ]
      }
    },
    {
      "type": "Feature",
      "properties": {
        "norad_id": 38064,
        "name": "COSMOS 2251 DEB",
        "group": "cosmos-2251-debris",
        "lat": -25.67874915920191,
        "lon": -60.68679376299407,
        "alt_km": 679.4066014217933,
        "timestamp": "2025-12-19T10:50:01.599689+00:00",
        "meta_object_name": "COSMOS 2251 DEB",
        "meta_object_id": "1993-036BRW",
        "meta_epoch": "2025-12-17T15:01:13.287072",
        "meta_mean_motion": 14.56341127,
        "meta_eccentricity": 0.00473106,
        "meta_inclination": 74.022,
        "meta_ra_of_asc_node": 114.8597,
        "meta_arg_of_pericenter": 233.6527,
        "meta_mean_anomaly": 126.0266,
        "meta_ephemeris_type": 0,
        "meta_classification_type": "U",
        "meta_norad_cat_id": 38064,
        "meta_element_set_no": 999,
        "meta_rev_at_epoch": 71936,
        "meta_bstar": 0.0007632935,
        "meta_mean_motion_dot": 3.406e-05,
        "meta_mean_motion_ddot": 0,
        "tle_line1": "1 38064U 93036BRW 25351.62584823  .00003406  00000+0  76329-3 0  9998",
        "tle_line2": "2 38064  74.0220 114.8597 0047310 233.6527 126.0266 14.56341127719369"
      },
      "geometry": {
        "type": "Point",
        "coordinates": [
          -60.68679376299407,
          -25.67874915920191
        ]
      }
    },
    {
      "type": "Feature",
      "properties": {
        "norad_id": 38067,
        "name": "COSMOS 2251 DEB",
        "group": "cosmos-2251-debris",
        "lat": -54.196992131594975,
        "lon": -121.75201172978616,
        "alt_km": 708.5585684848302,
        "timestamp": "2025-12-19T10:50:01.599699+00:00",
        "meta_object_name": "COSMOS 2251 DEB",
        "meta_object_id": "1993-036BRZ",
        "meta_epoch": "2025-12-14T13:35:01.091904",
        "meta_mean_motion": 14.61135602,
        "meta_eccentricity": 0.00694851,
        "meta_inclination": 74.0173,
        "meta_ra_of_asc_node": 271.0073,
        "meta_arg_of_pericenter": 58.167,
        "meta_mean_anomaly": 117.7661,
        "meta_ephemeris_type": 0,
        "meta_classification_type": "U",
        "meta_norad_cat_id": 38067,
        "meta_element_set_no": 999,
        "meta_rev_at_epoch": 62582,
        "meta_bstar": 0.00041702153,
        "meta_mean_motion_dot": 2.092e-05,
        "meta_mean_motion_ddot": 0,
        "tle_line1": "1 38067U 93036BRZ 25348.56598486  .00002092  00000+0  41702-3 0  9997",
        "tle_line2": "2 38067  74.0173 271.0073 0069485  58.1670 117.7661 14.61135602625828"
      },
      "geometry": {
        "type": "Point",
        "coordinates": [
          -121.75201172978616,
          -54.196992131594975
        ]
      }
    },
    {
      "type": "Feature",
      "properties": {
        "norad_id": 38068,
        "name": "COSMOS 2251 DEB",
        "group": "cosmos-2251-debris",
        "lat": -0.17851511100617773,
        "lon": 115.9753276832941,
        "alt_km": 790.1844221464316,
        "timestamp": "2025-12-19T10:50:01.599710+00:00",
        "meta_object_name": "COSMOS 2251 DEB",
        "meta_object_id": "1993-036BSA",
        "meta_epoch": "2025-11-26T00:12:22.263264",
        "meta_mean_motion": 14.35960004,
        "meta_eccentricity": 0.00240903,
        "meta_inclination": 74.0219,
        "meta_ra_of_asc_node": 338.9788,
        "meta_arg_of_pericenter": 72.1007,
        "meta_mean_anomaly": 288.2769,
        "meta_ephemeris_type": 0,
        "meta_classification_type": "U",
        "meta_norad_cat_id": 38068,
        "meta_element_set_no": 999,
        "meta_rev_at_epoch": 66406,
        "meta_bstar": 0.00028750999,
        "meta_mean_motion_dot": 8.11e-06,
        "meta_mean_motion_ddot": 0,
        "tle_line1": "1 38068U 93036BSA 25330.00859101  .00000811  00000+0  28751-3 0  9998",
        "tle_line2": "2 38068  74.0219 338.9788 0024090  72.1007 288.2769 14.35960004664064"
      },
      "geometry": {
        "type": "Point",
        "coordinates": [
          115.9753276832941,
          -0.17851511100617773
        ]
      }
    },
    {
      "type": "Feature",
      "properties": {
        "norad_id": 38197,
        "name": "COSMOS 2251 DEB",
        "group": "cosmos-2251-debris",
        "lat": 11.617422517974447,
        "lon": -12.738211138778711,
        "alt_km": 726.1192775385662,
        "timestamp": "2025-12-19T10:50:01.599720+00:00",
        "meta_object_name": "COSMOS 2251 DEB",
        "meta_object_id": "1993-036BSM",
        "meta_epoch": "2025-12-17T06:39:49.042944",
        "meta_mean_motion": 14.74260895,
        "meta_eccentricity": 0.01254717,
        "meta_inclination": 73.936,
        "meta_ra_of_asc_node": 348.1343,
        "meta_arg_of_pericenter": 224.4902,
        "meta_mean_anomaly": 134.6144,
        "meta_ephemeris_type": 0,
        "meta_classification_type": "U",
        "meta_norad_cat_id": 38197,
        "meta_element_set_no": 999,
        "meta_rev_at_epoch": 85822,
        "meta_bstar": 0.0026828231,
        "meta_mean_motion_dot": 0.00020164,
        "meta_mean_motion_ddot": 0,
        "tle_line1": "1 38197U 93036BSM 25351.27765096  .00020164  00000+0  26828-2 0  9997",
        "tle_line2": "2 38197  73.9360 348.1343 0125471 224.4902 134.6144 14.74260895858221"
      },
      "geometry": {
        "type": "Point",
        "coordinates": [
          -12.738211138778711,
          11.617422517974447
        ]
      }
    },
    {
      "type": "Feature",
      "properties": {
        "norad_id": 38199,
        "name": "COSMOS 2251 DEB",
        "group": "cosmos-2251-debris",
        "lat": 41.808181624211514,
        "lon": 66.07500943251263,
        "alt_km": 902.0745872007346,
        "timestamp": "2025-12-19T10:50:01.599730+00:00",
        "meta_object_name": "COSMOS 2251 DEB",
        "meta_object_id": "1993-036BSP",
        "meta_epoch": "2025-12-18T20:33:26.116992",
        "meta_mean_motion": 13.64802181,
        "meta_eccentricity": 0.0369926,
        "meta_inclination": 73.9559,
        "meta_ra_of_asc_node": 52.1388,
        "meta_arg_of_pericenter": 337.4029,
        "meta_mean_anomaly": 21.1146,
        "meta_ephemeris_type": 0,
        "meta_classification_type": "U",
        "meta_norad_cat_id": 38199,
        "meta_element_set_no": 999,
        "meta_rev_at_epoch": 61105,
        "meta_bstar": 0.00049100524,
        "meta_mean_motion_dot": 6.08e-06,
        "meta_mean_motion_ddot": 0,
        "tle_line1": "1 38199U 93036BSP 25352.85655228  .00000608  00000+0  49101-3 0  9990",
        "tle_line2": "2 38199  73.9559  52.1388 0369926 337.4029  21.1146 13.64802181611052"
      },
      "geometry": {
        "type": "Point",
        "coordinates": [
          66.07500943251263,
          41.808181624211514
        ]
      }
    }
  ]
}